Name,Address,city,state,zip
Pulaski Savings Bank,123 Smart St,Chicago,IL,12345
First National Bank of Lindsay,124 Smart St,Lindsay,OK,12346
Republic First Bank dba Republic Bank,125 Smart St,Philadelphia,PA,12347
Citizens Bank,126 Smart St,Sac City,IA,12348
Heartland Tri-State Bank,127 Smart St,Elkhart,KS,12349
First Republic Bank,128 Smart St,San Francisco,CA,12350
Signature Bank,129 Smart St,New York,NY,12351
Silicon Valley Bank,130 Smart St,Santa Clara,CA,12352
Almena State Bank,131 Smart St,Almena,KS,12353
First City Bank of Florida,132 Smart St,Fort Walton Beach,FL,12354
The First State Bank,133 Smart St,Barboursville,WV,12355
Ericson State Bank,134 Smart St,Ericson,NE,12356
City National Bank of New Jersey,135 Smart St,Newark,NJ,12357
Resolute Bank,136 Smart St,Maumee,OH,12358
Louisa Community Bank,137 Smart St,Louisa,KY,12359
The Enloe State Bank,138 Smart St,Cooper,TX,12360
Washington Federal Bank for Savings,139 Smart St,Chicago,IL,12361
The Farmers and Merchants State Bank of Argonia,140 Smart St,Argonia,KS,12362
Fayette County Bank,141 Smart St,Saint Elmo,IL,12363
"Guaranty Bank, (d/b/a BestBank in Georgia & Michigan)",142 Smart St,Milwaukee,WI,12364
First NBC Bank,143 Smart St,New Orleans,LA,12365
